NORAD_CAT_ID,OBJECT_NAME,OBJECT_TYPE,EPOCH,MEAN_MOTION,ECCENTRICITY,INCLINATION,RA_OF_ASC_NODE,ARG_OF_PERICENTER,MEAN_ANOMALY,BSTAR,MEAN_MOTION_DOT,MEAN_MOTION_DDOT,TLE_LINE0,TLE_LINE1,TLE_LINE2,SEMIMAJOR_AXIS,PERIOD,APOGEE,PERIGEE,DECAYED
53172.0,STARLINK-4299,PAYLOAD,2023-08-31 13:50:14,15.08845153,0.0001185,53.2186,334.0722,84.7464,275.3664,1.0813e-05,-1.16e-06,0.0,0 STARLINK-4299,1 53172U 22083AS  23243.57655763 -.00000116  00000-0  10813-4 0  9997,2 53172  53.2186 334.0722 0001185  84.7464 275.3664 15.08845153 63006,6917.865,95.437,540.549,538.91,0.0
53172.0,STARLINK-4299,PAYLOAD,2023-09-01 12:05:39,15.088176,0.0001079,53.2188,329.9101,91.5382,268.5733,0.00032386,4.867e-05,0.0,0 STARLINK-4299,1 53172U 22083AS  23244.50393032  .00004867  00000-0  32386-3 0  9993,2 53172  53.2188 329.9101 0001079  91.5382 268.5733 15.08817600 62500,6917.949,95.439,540.56,539.067,0.0
53172.0,STARLINK-4299,PAYLOAD,2023-09-01 15:16:24,15.08839903,0.0001282,53.2195,329.3105,98.7937,261.32,6.3004e-05,7.15e-06,0.0,0 STARLINK-4299,1 53172U 22083AS  23244.63640025  .00000715  00000-0  63004-4 0  9994,2 53172  53.2195 329.3105 0001282  98.7937 261.3200 15.08839903 63160,6917.881,95.438,540.633,538.859,0.0
53172.0,STARLINK-4299,PAYLOAD,2023-09-02 11:56:25,15.08845934,0.0001319,53.2178,325.4465,100.9005,259.2135,0.00015005,2.101e-05,0.0,0 STARLINK-4299,1 53172U 22083AS  23245.49751315  .00002101  00000-0  15005-3 0  9992,2 53172  53.2178 325.4465 0001319 100.9005 259.2135 15.08845934 62657,6917.862,95.437,540.64,538.815,0.0
53172.0,STARLINK-4299,PAYLOAD,2023-09-02 13:31:48,15.08847522,0.0001339,53.218,325.1488,101.7661,258.3482,0.0001607,2.271e-05,0.0,0 STARLINK-4299,1 53172U 22083AS  23245.56375195  .00002271  00000-0  16070-3 0  9999,2 53172  53.2180 325.1488 0001339 101.7661 258.3482 15.08847522 63304,6917.857,95.437,540.649,538.796,0.0
53172.0,STARLINK-4299,PAYLOAD,2023-09-03 05:25:39,15.08848712,0.0001304,53.2186,322.1763,99.6711,260.4428,5.7407e-05,6.26e-06,0.0,0 STARLINK-4299,1 53172U 22083AS  23246.22615353  .00000626  00000-0  57407-4 0  9998,2 53172  53.2186 322.1763 0001304  99.6711 260.4428 15.08848712 63403,6917.854,95.437,540.621,538.817,0.0
53172.0,STARLINK-4299,PAYLOAD,2023-09-03 11:47:11,15.08851911,0.0001488,53.2166,320.9876,93.9599,266.1563,0.00010964,1.458e-05,0.0,0 STARLINK-4299,1 53172U 22083AS  23246.49110841  .00001458  00000-0  10964-3 0  9999,2 53172  53.2166 320.9876 0001488  93.9599 266.1563 15.08851911 62807,6917.844,95.437,540.738,538.68,0.0
53172.0,STARLINK-4299,PAYLOAD,2023-09-04 08:27:14,15.08831273,0.0001317,53.2182,317.1216,103.393,256.7209,-0.0001041,-1.944e-05,0.0,0 STARLINK-4299,1 53172U 22083AS  23247.35224858 -.00001944  00000-0 -10410-3 0  9997,2 53172  53.2182 317.1216 0001317 103.3930 256.7209 15.08831273 63573,6917.907,95.438,540.683,538.861,0.0
53172.0,STARLINK-4299,PAYLOAD,2023-09-04 11:38:00,15.08829917,0.0001296,53.218,316.5273,99.8518,260.2621,-0.00011419,-2.104e-05,0.0,0 STARLINK-4299,1 53172U 22083AS  23247.48473014 -.00002104  00000-0 -11419-3 0  9990,2 53172  53.2180 316.5273 0001296  99.8518 260.2621 15.08829917 62955,6917.911,95.438,540.673,538.88,0.0
53172.0,STARLINK-4299,PAYLOAD,2023-09-04 21:10:19,15.0882955,0.0001335,53.2178,314.743,99.8245,260.2898,-9.1263e-05,-1.74e-05,0.0,0 STARLINK-4299,1 53172U 22083AS  23247.88217205 -.00001740  00000-0 -91263-4 0  9993,2 53172  53.2178 314.7430 0001335  99.8245 260.2898 15.08829550 63015,6917.912,95.438,540.701,538.854,0.0
53172.0,STARLINK-4299,PAYLOAD,2023-09-06 03:22:38,15.08830862,0.0001291,53.2173,309.0936,102.4043,257.7094,0.00015635,2.201e-05,0.0,0 STARLINK-4299,1 53172U 22083AS  23249.14072773  .00002201  00000-0  15635-3 0  9992,2 53172  53.2173 309.0936 0001291 102.4043 257.7094 15.08830862 63844,6917.908,95.438,540.666,538.88,0.0
53172.0,STARLINK-4299,PAYLOAD,2023-09-06 20:51:53,15.08834838,0.0001269,53.2175,305.8243,97.7071,262.4066,0.00019416,2.803e-05,0.0,0 STARLINK-4299,1 53172U 22083AS  23249.86936862  .00002803  00000-0  19416-3 0  9998,2 53172  53.2175 305.8243 0001269  97.7071 262.4066 15.08834838 63314,6917.896,95.438,540.639,538.883,0.0
53172.0,STARLINK-4299,PAYLOAD,2023-09-07 07:59:35,15.08838454,0.0001354,53.2172,303.7414,93.9809,266.1338,-2.1177e-06,-3.22e-06,0.0,0 STARLINK-4299,1 53172U 22083AS  23250.33305232 -.00000322  00000-0 -21177-5 0  9998,2 53172  53.2172 303.7414 0001354  93.9809 266.1338 15.08838454 64020,6917.885,95.438,540.687,538.813,0.0
53172.0,STARLINK-4299,PAYLOAD,2023-09-07 12:45:44,15.08839243,0.00014,53.2171,302.8493,94.7415,265.3737,4.7591e-05,4.7e-06,0.0,0 STARLINK-4299,1 53172U 22083AS  23250.53177021  .00000470  00000-0  47591-4 0  9992,2 53172  53.2171 302.8493 0001400  94.7415 265.3737 15.08839243 63413,6917.883,95.438,540.716,538.779,0.0
53172.0,STARLINK-4299,PAYLOAD,2023-09-08 11:01:08,15.08845995,0.0001451,53.217,298.686,86.319,273.7968,5.3233e-05,5.59e-06,0.0,0 STARLINK-4299,1 53172U 22083AS  23251.45912528  .00000559  00000-0  53233-4 0  9991,2 53172  53.2170 298.6860 0001451  86.3190 273.7968 15.08845995 64191,6917.862,95.437,540.731,538.723,0.0
53172.0,STARLINK-4299,PAYLOAD,2023-09-08 12:36:31,15.08847579,0.0001448,53.2169,298.3884,86.5807,273.5351,6.3788e-05,7.28e-06,0.0,0 STARLINK-4299,1 53172U 22083AS  23251.52536367  .00000728  00000-0  63788-4 0  9996,2 53172  53.2169 298.3884 0001448  86.5807 273.5351 15.08847579 63569,6917.857,95.437,540.724,538.721,0.0
53172.0,STARLINK-4299,PAYLOAD,2023-09-08 20:33:27,15.0883488,0.0001236,53.2162,296.899,94.7096,265.4037,0.00011739,1.581e-05,0.0,0 STARLINK-4299,1 53172U 22083AS  23251.85656789  .00001581  00000-0  11739-3 0  9999,2 53172  53.2162 296.8990 0001236  94.7096 265.4037 15.08834880 63617,6917.896,95.438,540.616,538.906,0.0
53172.0,STARLINK-4299,PAYLOAD,2023-09-09 02:55:00,15.08834339,0.0001372,53.216,295.7104,93.1286,266.9863,5.7497e-05,6.27e-06,0.0,0 STARLINK-4299,1 53172U 22083AS  23252.12153162  .00000627  00000-0  57497-4 0  9999,2 53172  53.2160 295.7104 0001372  93.1286 266.9863 15.08834339 64292,6917.898,95.438,540.712,538.814,0.0
53172.0,STARLINK-4299,PAYLOAD,2023-09-09 09:16:32,15.08835434,0.0001362,53.2166,294.5221,91.377,268.7378,5.7285e-05,6.24e-06,0.0,0 STARLINK-4299,1 53172U 22083AS  23252.38649151  .00000624  00000-0  57285-4 0  9997,2 53172  53.2166 294.5221 0001362  91.3770 268.7378 15.08835434 63693,6917.894,95.438,540.702,538.817,0.0
53172.0,STARLINK-4299,PAYLOAD,2023-09-09 14:02:41,15.08842895,0.0001455,53.2172,293.6292,91.9363,268.1796,7.3554e-05,8.83e-06,0.0,0 STARLINK-4299,1 53172U 22083AS  23252.58520673  .00000883  00000-0  73554-4 0  9990,2 53172  53.2172 293.6292 0001455  91.9363 268.1796 15.08842895 64367,6917.872,95.437,540.743,538.73,0.0
53172.0,STARLINK-4299,PAYLOAD,2023-09-09 20:24:14,15.08836264,0.0001482,53.2172,292.4391,93.7561,266.36,1.53e-05,-4.4e-07,0.0,0 STARLINK-4299,1 53172U 22083AS  23252.85017283 -.00000044  00000-0  15300-4 0  9993,2 53172  53.2172 292.4391 0001482  93.7561 266.3600 15.08836264 64406,6917.892,95.438,540.782,538.732,0.0
53172.0,STARLINK-4299,PAYLOAD,2023-09-10 09:07:19,15.0884664,0.0001393,53.2166,290.0609,93.2261,266.8891,2.9723e-05,1.85e-06,0.0,0 STARLINK-4299,1 53172U 22083AS  23253.38008622  .00000185  00000-0  29723-4 0  9998,2 53172  53.2166 290.0609 0001393  93.2261 266.8891 15.08846640 64482,6917.86,95.437,540.689,538.761,0.0
53172.0,STARLINK-4299,PAYLOAD,2023-09-10 12:18:05,15.08846973,0.0001393,53.2166,289.4661,93.3697,266.7454,3.3597e-05,2.47e-06,0.0,0 STARLINK-4299,1 53172U 22083AS  23253.51256567  .00000247  00000-0  33597-4 0  9999,2 53172  53.2166 289.4661 0001393  93.3697 266.7454 15.08846973 63860,6917.859,95.437,540.688,538.76,0.0
53172.0,STARLINK-4299,PAYLOAD,2023-09-11 02:36:34,15.08833916,0.0001601,53.2173,286.7886,93.8547,266.2628,8.6846e-05,1.094e-05,0.0,0 STARLINK-4299,1 53172U 22083AS  23254.10873355  .00001094  00000-0  86846-4 0  9991,2 53172  53.2173 286.7886 0001601  93.8547 266.2628 15.08833916 64590,6917.899,95.438,540.872,538.656,0.0
53172.0,STARLINK-4299,PAYLOAD,2023-09-11 10:33:29,15.08842055,0.000144,53.217,285.303,90.0673,270.0484,3.9566e-05,3.42e-06,0.0,0 STARLINK-4299,1 53172U 22083AS  23254.43992969  .00000342  00000-0  39566-4 0  9992,2 53172  53.2170 285.3030 0001440  90.0673 270.0484 15.08842055 64006,6917.874,95.437,540.735,538.743,0.0
53172.0,STARLINK-4299,PAYLOAD,2023-09-12 08:48:53,15.08843008,0.0001521,53.2176,281.1408,90.4742,269.6424,6.7937e-05,7.93e-06,0.0,0 STARLINK-4299,1 53172U 22083AS  23255.36728898  .00000793  00000-0  67937-4 0  9996,2 53172  53.2176 281.1408 0001521  90.4742 269.6424 15.08843008 64148,6917.871,95.437,540.788,538.684,0.0
53172.0,STARLINK-4299,PAYLOAD,2023-09-13 07:04:17,15.08841931,0.0001492,53.2171,276.9774,90.1637,269.9526,6.9221e-05,8.14e-06,0.0,0 STARLINK-4299,1 53172U 22083AS  23256.29464992  .00000814  00000-0  69221-4 0  9993,2 53172  53.2171 276.9774 0001492  90.1637 269.9526 15.08841931 64923,6917.874,95.437,540.772,538.707,0.0
53172.0,STARLINK-4299,PAYLOAD,2023-09-13 18:11:59,15.08840869,0.0001488,53.2171,274.896,89.1117,271.0045,5.6876e-05,6.17e-06,0.0,0 STARLINK-4299,1 53172U 22083AS  23256.75833059  .00000617  00000-0  56876-4 0  9991,2 53172  53.2171 274.8960 0001488  89.1117 271.0045 15.08840869 64359,6917.878,95.437,540.772,538.713,0.0
53172.0,STARLINK-4299,PAYLOAD,2023-09-14 02:08:56,15.08825529,0.0001733,53.219,273.4113,103.793,256.3255,-6.4282e-05,-1.311e-05,0.0,0 STARLINK-4299,1 53172U 22083AS  23257.08954524 -.00001311  00000-0 -64282-4 0  9993,2 53172  53.2190 273.4113 0001733 103.7930 256.3255 15.08825529 65046,6917.925,95.438,540.988,538.591,0.0
53172.0,STARLINK-4299,PAYLOAD,2023-09-14 10:05:52,15.08825754,0.0001575,53.2181,271.9238,98.7528,261.3642,-6.7755e-05,-1.366e-05,0.0,0 STARLINK-4299,1 53172U 22083AS  23257.42074825 -.00001366  00000-0 -67755-4 0  9996,2 53172  53.2181 271.9238 0001575  98.7528 261.3642 15.08825754 64457,6917.924,95.438,540.879,538.699,0.0
